QIANFAN-41              
1 62242U 24232F   25322.17262186  .00000188  00000+0  27251-3 0  9992
2 62242  89.0045  43.6715 0012275 258.5835 101.3937 13.50976424 95934
QIANFAN-42              
1 62243U 24232G   25322.18653248  .00000788  00000+0  33359-3 0  9999
2 62243  89.0037  40.1574 0016152 157.8143 202.3751 14.24454046 97876
QIANFAN-43              
1 62244U 24232H   25322.16844528  .00000189  00000+0  27503-3 0  9990
2 62244  89.0050  43.7361 0013719 264.9123  95.0462 13.50977096 64546
QIANFAN-44              
1 62245U 24232J   25322.15615355  .00000175  00000+0  25285-3 0  9994
2 62245  89.0048  43.5485 0011965 261.1946  98.7851 13.50971842 96014
QIANFAN-45              
1 62246U 24232K   25322.12321539  .00000194  00000+0  28236-3 0  9990
2 62246  89.0052  43.6975 0012634 261.0745  98.8976 13.50975670 95937
QIANFAN-46              
1 62247U 24232L   25322.14793101  .00000196  00000+0  28449-3 0  9999
2 62247  89.0048  43.7650 0012616 267.3749  92.5958 13.50973751 95891
QIANFAN-47              
1 62248U 24232M   25322.15204483  .00000193  00000+0  28011-3 0  9993
2 62248  89.0044  43.6986 0013059 266.4430  93.5227 13.50976295 95928
QIANFAN-48              
1 62249U 24232N   25322.18905463  .00000196  00000+0  28520-3 0  9991
2 62249  89.0048  43.6957 0015281 269.5950  90.3450 13.50988203 95937
